[{"OBJECT_NAME":"STARLINK-3293","OBJECT_ID":"2021-125W","EPOCH":"2026-03-09T19:41:30.278976","MEAN_MOTION":15.08840405,"ECCENTRICITY":0.00012576,"INCLINATION":53.2166,"RA_OF_ASC_NODE":248.5343,"ARG_OF_PERICENTER":86.2582,"MEAN_ANOMALY":273.8554,"EPHEMERIS_TYPE":0,"CLASSIFICATION_TYPE":"U","NORAD_CAT_ID":50176,"ELEMENT_SET_NO":999,"REV_AT_EPOCH":23666,"BSTAR":0.00011188765,"MEAN_MOTION_DOT":1.493e-5,"MEAN_MOTION_DDOT":0},{"OBJECT_NAME":"OBJECT F","OBJECT_ID":"2025-292F","EPOCH":"2026-03-09T22:41:00.950496","MEAN_MOTION":15.06065121,"ECCENTRICITY":0.00151037,"INCLINATION":97.6416,"RA_OF_ASC_NODE":145.7425,"ARG_OF_PERICENTER":346.7214,"MEAN_ANOMALY":13.3613,"EPHEMERIS_TYPE":0,"CLASSIFICATION_TYPE":"U","NORAD_CAT_ID":66998,"ELEMENT_SET_NO":999,"REV_AT_EPOCH":1351,"BSTAR":0.00047210602,"MEAN_MOTION_DOT":6.85e-5,"MEAN_MOTION_DDOT":0}]
